{"type": "FeatureCollection", "features": [ {"type": "Feature", "properties": {"norad_id": 30498, "name": "FENGYUN 1C DEB", "group": "fengyun-1c-debris", "lat": 23.342769159977216, "lon": -147.15466256990757, "alt_km": 802.6123276876233, "timestamp": "2025-12-03T20:47:58.500794+00:00", "meta": {"OBJECT_NAME": "FENGYUN 1C DEB", "OBJECT_ID": "1999-025AHL", "EPOCH": "2025-12-02T17:19:15.622176", "MEAN_MOTION": 14.05968462, "ECCENTRICITY": 0.01050258, "INCLINATION": 99.2391, "RA_OF_ASC_NODE": 27.6499, "ARG_OF_PERICENTER": 182.8546, "MEAN_ANOMALY": 301.9014, "EPHEMERIS_TYPE": 0, "CLASSIFICATION_TYPE": "U", "NORAD_CAT_ID": 30498, "ELEMENT_SET_NO": 999, "REV_AT_EPOCH": 95628, "BSTAR": 0.0021296515, "MEAN_MOTION_DOT": 3.622e-05, "MEAN_MOTION_DDOT": 0}, "tle": {"line1": "1 30498U 99025AHL 25336.72170859  .00003622  00000+0  21297-2 0  9992", "line2": "2 30498  99.2391  27.6499 0105025 182.8546 301.9014 14.05968462956286"}}, "geometry": {"type": "Point", "coordinates": [-147.15466256990757, 23.342769159977216]}}, {"type": "Feature", "properties": {"norad_id": 30500, "name": "FENGYUN 1C DEB", "group": "fengyun-1c-debris", "lat": 52.02304351135166, "lon": -99.12960700226373, "alt_km": 757.6650417336823, "timestamp": "2025-12-03T20:47:58.500805+00:00", "meta": {"OBJECT_NAME": "FENGYUN 1C DEB", "OBJECT_ID": "1999-025AHN", "EPOCH": "2025-12-03T05:10:48.205344", "MEAN_MOTION": 14.24996995, "ECCENTRICITY": 0.006593, "INCLINATION": 99.0729, "RA_OF_ASC_NODE": 68.3864, "ARG_OF_PERICENTER": 143.2676, "MEAN_ANOMALY": 247.0794, "EPHEMERIS_TYPE": 0, "CLASSIFICATION_TYPE": "U", "NORAD_CAT_ID": 30500, "ELEMENT_SET_NO": 999, "REV_AT_EPOCH": 96546, "BSTAR": 0.0037417, "MEAN_MOTION_DOT": 8.922e-05, "MEAN_MOTION_DDOT": 0}, "tle": {"line1": "1 30500U 99025AHN 25337.21583571  .00008922  00000+0  37417-2 0  9999", "line2": "2 30500  99.0729  68.3864 0065930 143.2676 247.0794 14.24996995965464"}}, "geometry": {"type": "Point", "coordinates": [-99.12960700226373, 52.02304351135166]}}, {"type": "Feature", "properties": {"norad_id": 30501, "name": "FENGYUN 1C DEB", "group": "fengyun-1c-debris", "lat": 66.74960678897445, "lon": -53.50101142741134, "alt_km": 828.6706824314588, "timestamp": "2025-12-03T20:47:58.500815+00:00", "meta": {"OBJECT_NAME": "FENGYUN 1C DEB", "OBJECT_ID": "1999-025AHP", "EPOCH": "2025-12-03T11:08:58.771104", "MEAN_MOTION": 14.25222339, "ECCENTRICITY": 0.0040593, "INCLINATION": 99.0837, "RA_OF_ASC_NODE": 327.9446, "ARG_OF_PERICENTER": 230.2055, "MEAN_ANOMALY": 296.6562, "EPHEMERIS_TYPE": 0, "CLASSIFICATION_TYPE": "U", "NORAD_CAT_ID": 30501, "ELEMENT_SET_NO": 999, "REV_AT_EPOCH": 96787, "BSTAR": 0.0023931, "MEAN_MOTION_DOT": 5.63e-05, "MEAN_MOTION_DDOT": 0}, "tle": {"line1": "1 30501U 99025AHP 25337.46456911  .00005630  00000+0  23931-2 0  9993", "line2": "2 30501  99.0837 327.9446 0040593 230.2055 296.6562 14.25222339967876"}}, "geometry": {"type": "Point", "coordinates": [-53.50101142741134, 66.74960678897445]}}, {"type": "Feature", "properties": {"norad_id": 30503, "name": "FENGYUN 1C DEB", "group": "fengyun-1c-debris", "lat": -36.4830309668405, "lon": -5.797979602996998, "alt_km": 843.4162895756381, "timestamp": "2025-12-03T20:47:58.500826+00:00", "meta": {"OBJECT_NAME": "FENGYUN 1C DEB", "OBJECT_ID": "1999-025AHR", "EPOCH": "2025-12-02T20:07:01.382016", "MEAN_MOTION": 14.1610701, "ECCENTRICITY": 0.00084613, "INCLINATION": 99.2052, "RA_OF_ASC_NODE": 180.0271, "ARG_OF_PERICENTER": 296.7017, "MEAN_ANOMALY": 80.2623, "EPHEMERIS_TYPE": 0, "CLASSIFICATION_TYPE": "U", "NORAD_CAT_ID": 30503, "ELEMENT_SET_NO": 999, "REV_AT_EPOCH": 97206, "BSTAR": 0.00036355576, "MEAN_MOTION_DOT": 6.71e-06, "MEAN_MOTION_DDOT": 0}, "tle": {"line1": "1 30503U 99025AHR 25336.83821044  .00000671  00000+0  36356-3 0  9994", "line2": "2 30503  99.2052 180.0271 0008461 296.7017  80.2623 14.16107010972066"}}, "geometry": {"type": "Point", "coordinates": [-5.797979602996998, -36.4830309668405]}}, {"type": "Feature", "properties": {"norad_id": 30504, "name": "FENGYUN 1C DEB", "group": "fengyun-1c-debris", "lat": -66.58171560744671, "lon": 45.39653486736197, "alt_km": 778.8402305780428, "timestamp": "2025-12-03T20:47:58.500836+00:00", "meta": {"OBJECT_NAME": "FENGYUN 1C DEB", "OBJECT_ID": "1999-025AHS", "EPOCH": "2025-12-01T01:38:19.716000", "MEAN_MOTION": 14.2044549, "ECCENTRICITY": 0.01115456, "INCLINATION": 99.0269, "RA_OF_ASC_NODE": 21.008, "ARG_OF_PERICENTER": 249.7531, "MEAN_ANOMALY": 139.2488, "EPHEMERIS_TYPE": 0, "CLASSIFICATION_TYPE": "U", "NORAD_CAT_ID": 30504, "ELEMENT_SET_NO": 999, "REV_AT_EPOCH": 97228, "BSTAR": 0.00044565383, "MEAN_MOTION_DOT": 9.7e-06, "MEAN_MOTION_DDOT": 0}, "tle": {"line1": "1 30504U 99025AHS 25335.06828375  .00000970  00000+0  44565-3 0  9996", "line2": "2 30504  99.0269  21.0080 0111545 249.7531 139.2488 14.20445490972284"}}, "geometry": {"type": "Point", "coordinates": [45.39653486736197, -66.58171560744671]}}, {"type": "Feature", "properties": {"norad_id": 30505, "name": "FENGYUN 1C DEB", "group": "fengyun-1c-debris", "lat": 37.15309233613717, "lon": -115.73981297723651, "alt_km": 842.0082049017228, "timestamp": "2025-12-03T20:47:58.500847+00:00", "meta": {"OBJECT_NAME": "FENGYUN 1C DEB", "OBJECT_ID": "1999-025AHT", "EPOCH": "2025-12-03T11:46:07.300128", "MEAN_MOTION": 14.21921724, "ECCENTRICITY": 0.0062876, "INCLINATION": 98.927, "RA_OF_ASC_NODE": 57.0392, "ARG_OF_PERICENTER": 268.4818, "MEAN_ANOMALY": 109.2284, "EPHEMERIS_TYPE": 0, "CLASSIFICATION_TYPE": "U", "NORAD_CAT_ID": 30505, "ELEMENT_SET_NO": 999, "REV_AT_EPOCH": 96792, "BSTAR": 0.0024958, "MEAN_MOTION_DOT": 5.576e-05, "MEAN_MOTION_DDOT": 0}, "tle": {"line1": "1 30505U 99025AHT 25337.49036227  .00005576  00000+0  24958-2 0  9993", "line2": "2 30505  98.9270  57.0392 0062876 268.4818 109.2284 14.21921724967924"}}, "geometry": {"type": "Point", "coordinates": [-115.73981297723651, 37.15309233613717]}}, {"type": "Feature", "properties": {"norad_id": 30506, "name": "FENGYUN 1C DEB", "group": "fengyun-1c-debris", "lat": -55.74502738110567, "lon": 150.11508084777662, "alt_km": 907.9649532674166, "timestamp": "2025-12-03T20:47:58.500857+00:00", "meta": {"OBJECT_NAME": "FENGYUN 1C DEB", "OBJECT_ID": "1999-025AHU", "EPOCH": "2025-12-03T11:52:24.944160", "MEAN_MOTION": 14.08633104, "ECCENTRICITY": 0.0070744, "INCLINATION": 98.757, "RA_OF_ASC_NODE": 342.8355, "ARG_OF_PERICENTER": 14.0807, "MEAN_ANOMALY": 138.1966, "EPHEMERIS_TYPE": 0, "CLASSIFICATION_TYPE": "U", "NORAD_CAT_ID": 30506, "ELEMENT_SET_NO": 999, "REV_AT_EPOCH": 96691, "BSTAR": 0.00046495, "MEAN_MOTION_DOT": 7.76e-06, "MEAN_MOTION_DDOT": 0}, "tle": {"line1": "1 30506U 99025AHU 25337.49473315  .00000776  00000+0  46495-3 0  9995", "line2": "2 30506  98.7570 342.8355 0070744  14.0807 138.1966 14.08633104966919"}}, "geometry": {"type": "Point", "coordinates": [150.11508084777662, -55.74502738110567]}}, {"type": "Feature", "properties": {"norad_id": 30507, "name": "FENGYUN 1C DEB", "group": "fengyun-1c-debris", "lat": -29.879301073219455, "lon": -142.94745235795398, "alt_km": 763.1546874678497, "timestamp": "2025-12-03T20:47:58.500867+00:00", "meta": {"OBJECT_NAME": "FENGYUN 1C DEB", "OBJECT_ID": "1999-025AHV", "EPOCH": "2025-11-30T22:58:02.867232", "MEAN_MOTION": 14.13085215, "ECCENTRICITY": 0.01281493, "INCLINATION": 99.0144, "RA_OF_ASC_NODE": 39.3554, "ARG_OF_PERICENTER": 209.3423, "MEAN_ANOMALY": 326.9345, "EPHEMERIS_TYPE": 0, "CLASSIFICATION_TYPE": "U", "NORAD_CAT_ID": 30507, "ELEMENT_SET_NO": 999, "REV_AT_EPOCH": 96331, "BSTAR": 0.0013402973, "MEAN_MOTION_DOT": 2.662e-05, "MEAN_MOTION_DDOT": 0}, "tle": {"line1": "1 30507U 99025AHV 25334.95697763  .00002662  00000+0  13403-2 0  9997", "line2": "2 30507  99.0144  39.3554 0128149 209.3423 326.9345 14.13085215963315"}}, "geometry": {"type": "Point", "coordinates": [-142.94745235795398, -29.879301073219455]}}, {"type": "Feature", "properties": {"norad_id": 30509, "name": "FENGYUN 1C DEB", "group": "fengyun-1c-debris", "lat": -21.026628735314215, "lon": 26.980443853901335, "alt_km": 900.520853260995, "timestamp": "2025-12-03T20:47:58.500877+00:00", "meta": {"OBJECT_NAME": "FENGYUN 1C DEB", "OBJECT_ID": "1999-025AHX", "EPOCH": "2025-12-03T03:30:19.851840", "MEAN_MOTION": 14.07549684, "ECCENTRICITY": 0.01008999, "INCLINATION": 98.4654, "RA_OF_ASC_NODE": 209.5868, "ARG_OF_PERICENTER": 90.5171, "MEAN_ANOMALY": 60.2713, "EPHEMERIS_TYPE": 0, "CLASSIFICATION_TYPE": "U", "NORAD_CAT_ID": 30509, "ELEMENT_SET_NO": 999, "REV_AT_EPOCH": 95587, "BSTAR": 0.0023128864, "MEAN_MOTION_DOT": 4.048e-05, "MEAN_MOTION_DDOT": 0}, "tle": {"line1": "1 30509U 99025AHX 25337.14606310  .00004048  00000+0  23129-2 0  9997", "line2": "2 30509  98.4654 209.5868 0100899  90.5171  60.2713 14.07549684955874"}}, "geometry": {"type": "Point", "coordinates": [26.980443853901335, -21.026628735314215]}}, {"type": "Feature", "properties": {"norad_id": 30510, "name": "FENGYUN 1C DEB", "group": "fengyun-1c-debris", "lat": 78.11555343524972, "lon": -61.096165206718645, "alt_km": 860.1269965707434, "timestamp": "2025-12-03T20:47:58.500888+00:00", "meta": {"OBJECT_NAME": "FENGYUN 1C DEB", "OBJECT_ID": "1999-025AHY", "EPOCH": "2025-12-03T12:37:34.173408", "MEAN_MOTION": 14.12776429, "ECCENTRICITY": 0.0078554, "INCLINATION": 99.245, "RA_OF_ASC_NODE": 349.2608, "ARG_OF_PERICENTER": 191.9503, "MEAN_ANOMALY": 320.2943, "EPHEMERIS_TYPE": 0, "CLASSIFICATION_TYPE": "U", "NORAD_CAT_ID": 30510, "ELEMENT_SET_NO": 999, "REV_AT_EPOCH": 96444, "BSTAR": 0.0017695, "MEAN_MOTION_DOT": 3.338e-05, "MEAN_MOTION_DDOT": 0}, "tle": {"line1": "1 30510U 99025AHY 25337.52608997  .00003338  00000+0  17695-2 0  9996", "line2": "2 30510  99.2450 349.2608 0078554 191.9503 320.2943 14.12776429964442"}}, "geometry": {"type": "Point", "coordinates": [-61.096165206718645, 78.11555343524972]}}]}